{
  "type": "FeatureCollection",
  "features": [
    {
      "type": "Feature",
      "properties": {
        "norad_id": 37781,
        "name": "HAIYANG-2A",
        "group": "resource",
        "lat": -78.22109386457419,
        "lon": 50.073206138134076,
        "alt_km": 976.3561600437488,
        "timestamp": "2025-12-23T05:02:11.680411+00:00",
        "meta_object_name": "HAIYANG-2A",
        "meta_object_id": "2011-043A",
        "meta_epoch": "2025-12-23T00:12:46.980576",
        "meta_mean_motion": 13.78835166,
        "meta_eccentricity": 0.00015921,
        "meta_inclination": 99.3372,
        "meta_ra_of_asc_node": 357.7849,
        "meta_arg_of_pericenter": 70.35,
        "meta_mean_anomaly": 289.7823,
        "meta_ephemeris_type": 0,
        "meta_classification_type": "U",
        "meta_norad_cat_id": 37781,
        "meta_element_set_no": 999,
        "meta_rev_at_epoch": 72240,
        "meta_bstar": -0.00020098783,
        "meta_mean_motion_dot": -2.49e-06,
        "meta_mean_motion_ddot": 0,
        "tle_line1": "1 37781U 11043A   25357.00887709 -.00000249  00000+0 -20099-3 0  9995",
        "tle_line2": "2 37781  99.3372 357.7849 0001592  70.3500 289.7823 13.78835166722408"
      },
      "geometry": {
        "type": "Point",
        "coordinates": [
          50.073206138134076,
          -78.22109386457419
        ]
      }
    },
    {
      "type": "Feature",
      "properties": {
        "norad_id": 37791,
        "name": "RASAT",
        "group": "resource",
        "lat": 33.26988218748804,
        "lon": -88.34941059410635,
        "alt_km": 671.5002536728243,
        "timestamp": "2025-12-23T05:02:11.680421+00:00",
        "meta_object_name": "RASAT",
        "meta_object_id": "2011-044D",
        "meta_epoch": "2025-12-23T00:15:03.414816",
        "meta_mean_motion": 14.67922594,
        "meta_eccentricity": 0.00214188,
        "meta_inclination": 98.0649,
        "meta_ra_of_asc_node": 86.1161,
        "meta_arg_of_pericenter": 34.0309,
        "meta_mean_anomaly": 138.8935,
        "meta_ephemeris_type": 0,
        "meta_classification_type": "U",
        "meta_norad_cat_id": 37791,
        "meta_element_set_no": 999,
        "meta_rev_at_epoch": 76733,
        "meta_bstar": 0.00010871276,
        "meta_mean_motion_dot": 5.75e-06,
        "meta_mean_motion_ddot": 0,
        "tle_line1": "1 37791U 11044D   25357.01045619  .00000575  00000+0  10871-3 0  9991",
        "tle_line2": "2 37791  98.0649  86.1161 0021418  34.0309 138.8935 14.67922594767335"
      },
      "geometry": {
        "type": "Point",
        "coordinates": [
          -88.34941059410635,
          33.26988218748804
        ]
      }
    },
    {
      "type": "Feature",
      "properties": {
        "norad_id": 37841,
        "name": "SRMSAT",
        "group": "resource",
        "lat": 18.306166321188815,
        "lon": 158.95755660041718,
        "alt_km": 843.0774794593999,
        "timestamp": "2025-12-23T05:02:11.680431+00:00",
        "meta_object_name": "SRMSAT",
        "meta_object_id": "2011-058D",
        "meta_epoch": "2025-12-22T20:49:16.932576",
        "meta_mean_motion": 14.11514738,
        "meta_eccentricity": 0.00119867,
        "meta_inclination": 19.9728,
        "meta_ra_of_asc_node": 46.656,
        "meta_arg_of_pericenter": 64.3744,
        "meta_mean_anomaly": 105.432,
        "meta_ephemeris_type": 0,
        "meta_classification_type": "U",
        "meta_norad_cat_id": 37841,
        "meta_element_set_no": 999,
        "meta_rev_at_epoch": 73287,
        "meta_bstar": 8.3000233e-05,
        "meta_mean_motion_dot": 4.18e-06,
        "meta_mean_motion_ddot": 0,
        "tle_line1": "1 37841U 11058D   25356.86755709  .00000418  00000+0  83000-4 0  9993",
        "tle_line2": "2 37841  19.9728  46.6560 0011986  64.3744 105.4320 14.11514738732878"
      },
      "geometry": {
        "type": "Point",
        "coordinates": [
          158.95755660041718,
          18.306166321188815
        ]
      }
    },
    {
      "type": "Feature",
      "properties": {
        "norad_id": 38012,
        "name": "PLEIADES 1A",
        "group": "resource",
        "lat": -50.07156817058773,
        "lon": 79.71455847679393,
        "alt_km": 705.1354758235975,
        "timestamp": "2025-12-23T05:02:11.680441+00:00",
        "meta_object_name": "PLEIADES 1A",
        "meta_object_id": "2011-076F",
        "meta_epoch": "2025-12-22T23:12:24.055776",
        "meta_mean_motion": 14.58569641,
        "meta_eccentricity": 0.00011156,
        "meta_inclination": 98.1815,
        "meta_ra_of_asc_node": 69.5777,
        "meta_arg_of_pericenter": 74.2854,
        "meta_mean_anomaly": 40.2851,
        "meta_ephemeris_type": 0,
        "meta_classification_type": "U",
        "meta_norad_cat_id": 38012,
        "meta_element_set_no": 999,
        "meta_rev_at_epoch": 74630,
        "meta_bstar": 7.1114465e-05,
        "meta_mean_motion_dot": 2.85e-06,
        "meta_mean_motion_ddot": 0,
        "tle_line1": "1 38012U 11076F   25356.96694509  .00000285  00000+0  71114-4 0  9990",
        "tle_line2": "2 38012  98.1815  69.5777 0001115  74.2854  40.2851 14.58569641746306"
      },
      "geometry": {
        "type": "Point",
        "coordinates": [
          79.71455847679393,
          -50.07156817058773
        ]
      }
    },
    {
      "type": "Feature",
      "properties": {
        "norad_id": 38038,
        "name": "ZIYUAN 1-02C (ZY 1-02C)",
        "group": "resource",
        "lat": 15.777029728470739,
        "lon": -114.56769222626072,
        "alt_km": 762.4850123286287,
        "timestamp": "2025-12-23T05:02:11.680451+00:00",
        "meta_object_name": "ZIYUAN 1-02C (ZY 1-02C)",
        "meta_object_id": "2011-079A",
        "meta_epoch": "2025-12-22T23:50:27.227616",
        "meta_mean_motion": 14.38022076,
        "meta_eccentricity": 0.000752,
        "meta_inclination": 98.4323,
        "meta_ra_of_asc_node": 62.8178,
        "meta_arg_of_pericenter": 111.6599,
        "meta_mean_anomaly": 12.1278,
        "meta_ephemeris_type": 0,
        "meta_classification_type": "U",
        "meta_norad_cat_id": 38038,
        "meta_element_set_no": 999,
        "meta_rev_at_epoch": 73388,
        "meta_bstar": 0.00011496369,
        "meta_mean_motion_dot": 3.05e-06,
        "meta_mean_motion_ddot": 0,
        "tle_line1": "1 38038U 11079A   25356.99337069  .00000305  00000+0  11496-3 0  9998",
        "tle_line2": "2 38038  98.4323  62.8178 0007520 111.6599  12.1278 14.38022076733884"
      },
      "geometry": {
        "type": "Point",
        "coordinates": [
          -114.56769222626072,
          15.777029728470739
        ]
      }
    },
    {
      "type": "Feature",
      "properties": {
        "norad_id": 38338,
        "name": "ARIRANG-3 (KOMPSAT-3)",
        "group": "resource",
        "lat": -34.11049775869414,
        "lon": -42.423104743986535,
        "alt_km": 690.7196576219367,
        "timestamp": "2025-12-23T05:02:11.680462+00:00",
        "meta_object_name": "ARIRANG-3 (KOMPSAT-3)",
        "meta_object_id": "2012-025B",
        "meta_epoch": "2025-12-22T22:37:21.465120",
        "meta_mean_motion": 14.61725451,
        "meta_eccentricity": 0.00047801,
        "meta_inclination": 98.3339,
        "meta_ra_of_asc_node": 311.6096,
        "meta_arg_of_pericenter": 302.5188,
        "meta_mean_anomaly": 57.5551,
        "meta_ephemeris_type": 0,
        "meta_classification_type": "U",
        "meta_norad_cat_id": 38338,
        "meta_element_set_no": 999,
        "meta_rev_at_epoch": 72559,
        "meta_bstar": 0.00012034151,
        "meta_mean_motion_dot": 5.51e-06,
        "meta_mean_motion_ddot": 0,
        "tle_line1": "1 38338U 12025B   25356.94260955  .00000551  00000+0  12034-3 0  9999",
        "tle_line2": "2 38338  98.3339 311.6096 0004780 302.5188  57.5551 14.61725451725596"
      },
      "geometry": {
        "type": "Point",
        "coordinates": [
          -42.423104743986535,
          -34.11049775869414
        ]
      }
    },
    {
      "type": "Feature",
      "properties": {
        "norad_id": 38709,
        "name": "EXACTVIEW-1 (ADS-1B)",
        "group": "resource",
        "lat": 18.11018811028072,
        "lon": 102.86056314756188,
        "alt_km": 804.923166834893,
        "timestamp": "2025-12-23T05:02:11.680472+00:00",
        "meta_object_name": "EXACTVIEW-1 (ADS-1B)",
        "meta_object_id": "2012-039C",
        "meta_epoch": "2025-12-22T20:31:28.484256",
        "meta_mean_motion": 14.24911909,
        "meta_eccentricity": 0.00101785,
        "meta_inclination": 98.9638,
        "meta_ra_of_asc_node": 105.4575,
        "meta_arg_of_pericenter": 324.0491,
        "meta_mean_anomaly": 36.0002,
        "meta_ephemeris_type": 0,
        "meta_classification_type": "U",
        "meta_norad_cat_id": 38709,
        "meta_element_set_no": 999,
        "meta_rev_at_epoch": 69759,
        "meta_bstar": 8.2108934e-05,
        "meta_mean_motion_dot": 1.45e-06,
        "meta_mean_motion_ddot": 0,
        "tle_line1": "1 38709U 12039C   25356.85519079  .00000145  00000+0  82109-4 0  9990",
        "tle_line2": "2 38709  98.9638 105.4575 0010178 324.0491  36.0002 14.24911909697596"
      },
      "geometry": {
        "type": "Point",
        "coordinates": [
          102.86056314756188,
          18.11018811028072
        ]
      }
    }
  ]
}